{"type": "FeatureCollection", "features": [ {"type": "Feature", "properties": {"norad_id": 34077, "name": "IRIDIUM 33 DEB", "group": "iridium-33-debris", "lat": -44.87714697149036, "lon": 43.951224076201974, "alt_km": 680.4401560481956, "timestamp": "2025-12-21T16:47:55.123468+00:00", "meta": {"OBJECT_NAME": "IRIDIUM 33 DEB", "OBJECT_ID": "1997-051CL", "EPOCH": "2025-12-21T03:59:30.922368", "MEAN_MOTION": 14.64919607, "ECCENTRICITY": 0.00092333, "INCLINATION": 86.385, "RA_OF_ASC_NODE": 47.7954, "ARG_OF_PERICENTER": 12.3417, "MEAN_ANOMALY": 10.5487, "EPHEMERIS_TYPE": 0, "CLASSIFICATION_TYPE": "U", "NORAD_CAT_ID": 34077, "ELEMENT_SET_NO": 999, "REV_AT_EPOCH": 88456, "BSTAR": 0.00074353434, "MEAN_MOTION_DOT": 3.999e-05, "MEAN_MOTION_DDOT": 0}, "tle": {"line1": "1 34077U 97051CL  25355.16633012  .00003999  00000+0  74353-3 0  9999", "line2": "2 34077  86.3850  47.7954 0009233  12.3417  10.5487 14.64919607884567"}}, "geometry": {"type": "Point", "coordinates": [43.951224076201974, -44.87714697149036]}}, {"type": "Feature", "properties": {"norad_id": 34079, "name": "IRIDIUM 33 DEB", "group": "iridium-33-debris", "lat": -11.10868169869438, "lon": -174.70063406795026, "alt_km": 624.6614962044277, "timestamp": "2025-12-21T16:47:55.123479+00:00", "meta": {"OBJECT_NAME": "IRIDIUM 33 DEB", "OBJECT_ID": "1997-051CN", "EPOCH": "2025-12-21T01:41:36.962880", "MEAN_MOTION": 14.83721839, "ECCENTRICITY": 0.0004623, "INCLINATION": 86.3769, "RA_OF_ASC_NODE": 4.8728, "ARG_OF_PERICENTER": 338.2576, "MEAN_ANOMALY": 93.2385, "EPHEMERIS_TYPE": 0, "CLASSIFICATION_TYPE": "U", "NORAD_CAT_ID": 34079, "ELEMENT_SET_NO": 999, "REV_AT_EPOCH": 89101, "BSTAR": 0.0010935828, "MEAN_MOTION_DOT": 9.07e-05, "MEAN_MOTION_DDOT": 0}, "tle": {"line1": "1 34079U 97051CN  25355.07056670  .00009070  00000+0  10936-2 0  9992", "line2": "2 34079  86.3769   4.8728 0004623 338.2576  93.2385 14.83721839891017"}}, "geometry": {"type": "Point", "coordinates": [-174.70063406795026, -11.10868169869438]}}, {"type": "Feature", "properties": {"norad_id": 34088, "name": "IRIDIUM 33 DEB", "group": "iridium-33-debris", "lat": 1.6054088697315356, "lon": -153.49575924464312, "alt_km": 591.4279044804225, "timestamp": "2025-12-21T16:47:55.123489+00:00", "meta": {"OBJECT_NAME": "IRIDIUM 33 DEB", "OBJECT_ID": "1997-051CX", "EPOCH": "2025-12-21T01:45:27.066816", "MEAN_MOTION": 14.91723187, "ECCENTRICITY": 0.00066274, "INCLINATION": 86.3839, "RA_OF_ASC_NODE": 26.8939, "ARG_OF_PERICENTER": 150.3729, "MEAN_ANOMALY": 264.499, "EPHEMERIS_TYPE": 0, "CLASSIFICATION_TYPE": "U", "NORAD_CAT_ID": 34088, "ELEMENT_SET_NO": 999, "REV_AT_EPOCH": 88866, "BSTAR": 0.001445423, "MEAN_MOTION_DOT": 0.00014591, "MEAN_MOTION_DDOT": 0}, "tle": {"line1": "1 34088U 97051CX  25355.07322994  .00014591  00000+0  14454-2 0  9990", "line2": "2 34088  86.3839  26.8939 0006627 150.3729 264.4990 14.91723187888660"}}, "geometry": {"type": "Point", "coordinates": [-153.49575924464312, 1.6054088697315356]}}, {"type": "Feature", "properties": {"norad_id": 34091, "name": "IRIDIUM 33 DEB", "group": "iridium-33-debris", "lat": 59.743784222098334, "lon": 69.02643627690775, "alt_km": 638.3345298121721, "timestamp": "2025-12-21T16:47:55.123500+00:00", "meta": {"OBJECT_NAME": "IRIDIUM 33 DEB", "OBJECT_ID": "1997-051DA", "EPOCH": "2025-12-21T05:11:15.309888", "MEAN_MOTION": 14.82383169, "ECCENTRICITY": 0.0034138, "INCLINATION": 86.3414, "RA_OF_ASC_NODE": 62.9508, "ARG_OF_PERICENTER": 262.7173, "MEAN_ANOMALY": 97.0169, "EPHEMERIS_TYPE": 0, "CLASSIFICATION_TYPE": "U", "NORAD_CAT_ID": 34091, "ELEMENT_SET_NO": 999, "REV_AT_EPOCH": 87992, "BSTAR": 0.0035697, "MEAN_MOTION_DOT": 0.00028976, "MEAN_MOTION_DDOT": 0}, "tle": {"line1": "1 34091U 97051DA  25355.21614942  .00028976  00000+0  35697-2 0  9991", "line2": "2 34091  86.3414  62.9508 0034138 262.7173  97.0169 14.82383169879924"}}, "geometry": {"type": "Point", "coordinates": [69.02643627690775, 59.743784222098334]}}, {"type": "Feature", "properties": {"norad_id": 34097, "name": "IRIDIUM 33 DEB", "group": "iridium-33-debris", "lat": -42.590154342524094, "lon": -179.0449475753974, "alt_km": 802.1159245861618, "timestamp": "2025-12-21T16:47:55.123510+00:00", "meta": {"OBJECT_NAME": "IRIDIUM 33 DEB", "OBJECT_ID": "1997-051DG", "EPOCH": "2025-12-21T12:24:38.765376", "MEAN_MOTION": 14.3484137, "ECCENTRICITY": 0.0081714, "INCLINATION": 86.1998, "RA_OF_ASC_NODE": 357.5329, "ARG_OF_PERICENTER": 333.4635, "MEAN_ANOMALY": 26.2387, "EPHEMERIS_TYPE": 0, "CLASSIFICATION_TYPE": "U", "NORAD_CAT_ID": 34097, "ELEMENT_SET_NO": 999, "REV_AT_EPOCH": 87245, "BSTAR": 0.0011354, "MEAN_MOTION_DOT": 3.364e-05, "MEAN_MOTION_DDOT": 0}, "tle": {"line1": "1 34097U 97051DG  25355.51711534  .00003364  00000+0  11354-2 0  9993", "line2": "2 34097  86.1998 357.5329 0081714 333.4635  26.2387 14.34841370872457"}}, "geometry": {"type": "Point", "coordinates": [-179.0449475753974, -42.590154342524094]}}, {"type": "Feature", "properties": {"norad_id": 34145, "name": "IRIDIUM 33 DEB", "group": "iridium-33-debris", "lat": 13.933946240234452, "lon": -30.522760873839644, "alt_km": 726.83798562009, "timestamp": "2025-12-21T16:47:55.123521+00:00", "meta": {"OBJECT_NAME": "IRIDIUM 33 DEB", "OBJECT_ID": "1997-051DY", "EPOCH": "2025-12-21T08:24:33.903360", "MEAN_MOTION": 14.42344558, "ECCENTRICITY": 0.0055699, "INCLINATION": 86.2119, "RA_OF_ASC_NODE": 328.691, "ARG_OF_PERICENTER": 66.4729, "MEAN_ANOMALY": 294.2309, "EPHEMERIS_TYPE": 0, "CLASSIFICATION_TYPE": "U", "NORAD_CAT_ID": 34145, "ELEMENT_SET_NO": 999, "REV_AT_EPOCH": 87762, "BSTAR": 0.00088327, "MEAN_MOTION_DOT": 2.992e-05, "MEAN_MOTION_DDOT": 0}, "tle": {"line1": "1 34145U 97051DY  25355.35039240  .00002992  00000+0  88327-3 0  9997", "line2": "2 34145  86.2119 328.6910 0055699  66.4729 294.2309 14.42344558877622"}}, "geometry": {"type": "Point", "coordinates": [-30.522760873839644, 13.933946240234452]}}, {"type": "Feature", "properties": {"norad_id": 34146, "name": "IRIDIUM 33 DEB", "group": "iridium-33-debris", "lat": -50.020983313412, "lon": 170.2878398102953, "alt_km": 721.0822523598445, "timestamp": "2025-12-21T16:47:55.123531+00:00", "meta": {"OBJECT_NAME": "IRIDIUM 33 DEB", "OBJECT_ID": "1997-051DZ", "EPOCH": "2025-12-21T11:20:47.029056", "MEAN_MOTION": 14.49100968, "ECCENTRICITY": 0.0026382, "INCLINATION": 86.2834, "RA_OF_ASC_NODE": 345.942, "ARG_OF_PERICENTER": 191.3369, "MEAN_ANOMALY": 294.1823, "EPHEMERIS_TYPE": 0, "CLASSIFICATION_TYPE": "U", "NORAD_CAT_ID": 34146, "ELEMENT_SET_NO": 999, "REV_AT_EPOCH": 88233, "BSTAR": 0.00067307, "MEAN_MOTION_DOT": 2.588e-05, "MEAN_MOTION_DDOT": 0}, "tle": {"line1": "1 34146U 97051DZ  25355.47276654  .00002588  00000+0  67307-3 0  9999", "line2": "2 34146  86.2834 345.9420 0026382 191.3369 294.1823 14.49100968882336"}}, "geometry": {"type": "Point", "coordinates": [170.2878398102953, -50.020983313412]}}, {"type": "Feature", "properties": {"norad_id": 34159, "name": "IRIDIUM 33 DEB", "group": "iridium-33-debris", "lat": -35.59564561818274, "lon": 41.8017668065734, "alt_km": 762.8141836493896, "timestamp": "2025-12-21T16:47:55.123542+00:00", "meta": {"OBJECT_NAME": "IRIDIUM 33 DEB", "OBJECT_ID": "1997-051EN", "EPOCH": "2025-12-21T10:17:10.761792", "MEAN_MOTION": 14.3851321, "ECCENTRICITY": 0.0026079, "INCLINATION": 86.3499, "RA_OF_ASC_NODE": 44.5364, "ARG_OF_PERICENTER": 257.1437, "MEAN_ANOMALY": 102.6848, "EPHEMERIS_TYPE": 0, "CLASSIFICATION_TYPE": "U", "NORAD_CAT_ID": 34159, "ELEMENT_SET_NO": 999, "REV_AT_EPOCH": 88084, "BSTAR": 0.00030289, "MEAN_MOTION_DOT": 9.48e-06, "MEAN_MOTION_DDOT": 0}, "tle": {"line1": "1 34159U 97051EN  25355.42859678  .00000948  00000+0  30289-3 0  9998", "line2": "2 34159  86.3499  44.5364 0026079 257.1437 102.6848 14.38513210880847"}}, "geometry": {"type": "Point", "coordinates": [41.8017668065734, -35.59564561818274]}}, {"type": "Feature", "properties": {"norad_id": 34350, "name": "IRIDIUM 33 DEB", "group": "iridium-33-debris", "lat": -35.20948763428714, "lon": -178.48321879423187, "alt_km": 752.0287339513106, "timestamp": "2025-12-21T16:47:55.123552+00:00", "meta": {"OBJECT_NAME": "IRIDIUM 33 DEB", "OBJECT_ID": "1997-051ES", "EPOCH": "2025-12-21T11:31:45.820416", "MEAN_MOTION": 14.45405721, "ECCENTRICITY": 0.0023398, "INCLINATION": 86.3272, "RA_OF_ASC_NODE": 359.0141, "ARG_OF_PERICENTER": 108.389, "MEAN_ANOMALY": 44.8421, "EPHEMERIS_TYPE": 0, "CLASSIFICATION_TYPE": "U", "NORAD_CAT_ID": 34350, "ELEMENT_SET_NO": 999, "REV_AT_EPOCH": 88419, "BSTAR": 0.00026046, "MEAN_MOTION_DOT": 9.39e-06, "MEAN_MOTION_DDOT": 0}, "tle": {"line1": "1 34350U 97051ES  25355.48039144  .00000939  00000+0  26046-3 0  9991", "line2": "2 34350  86.3272 359.0141 0023398 108.3890  44.8421 14.45405721884198"}}, "geometry": {"type": "Point", "coordinates": [-178.48321879423187, -35.20948763428714]}}, {"type": "Feature", "properties": {"norad_id": 34366, "name": "IRIDIUM 33 DEB", "group": "iridium-33-debris", "lat": 76.54497148419536, "lon": -149.97509709562186, "alt_km": 688.9712146353359, "timestamp": "2025-12-21T16:47:55.123562+00:00", "meta": {"OBJECT_NAME": "IRIDIUM 33 DEB", "OBJECT_ID": "1997-051FJ", "EPOCH": "2025-12-21T03:14:39.196032", "MEAN_MOTION": 14.54116771, "ECCENTRICITY": 0.00229982, "INCLINATION": 86.369, "RA_OF_ASC_NODE": 45.662, "ARG_OF_PERICENTER": 113.5249, "MEAN_ANOMALY": 274.8967, "EPHEMERIS_TYPE": 0, "CLASSIFICATION_TYPE": "U", "NORAD_CAT_ID": 34366, "ELEMENT_SET_NO": 999, "REV_AT_EPOCH": 88304, "BSTAR": 0.00059167018, "MEAN_MOTION_DOT": 2.529e-05, "MEAN_MOTION_DDOT": 0}, "tle": {"line1": "1 34366U 97051FJ  25355.13517588  .00002529  00000+0  59167-3 0  9990", "line2": "2 34366  86.3690  45.6620 0022998 113.5249 274.8967 14.54116771883047"}}, "geometry": {"type": "Point", "coordinates": [-149.97509709562186, 76.54497148419536]}}]}